NORAD_CAT_ID,OBJECT_NAME,OBJECT_TYPE,EPOCH,MEAN_MOTION,ECCENTRICITY,INCLINATION,RA_OF_ASC_NODE,ARG_OF_PERICENTER,MEAN_ANOMALY,BSTAR,MEAN_MOTION_DOT,MEAN_MOTION_DDOT,TLE_LINE0,TLE_LINE1,TLE_LINE2,SEMIMAJOR_AXIS,PERIOD,APOGEE,PERIGEE,DECAYED
53633.0,STARLINK-4593,PAYLOAD,2023-09-25 07:41:27,15.08844275,0.000154,53.216,288.099,91.8593,268.2575,0.00010852,1.44e-05,0.0,0 STARLINK-4593,1 53633U 22104AX  23268.32045898  .00001440  00000-0  10852-3 0  9997,2 53633  53.2160 288.0990 0001540  91.8593 268.2575 15.08844275 59889,6917.867,95.437,540.798,538.667,0.0
53633.0,STARLINK-4593,PAYLOAD,2023-09-25 10:52:13,15.08844957,0.0001558,53.2159,287.5038,91.4342,268.6829,0.00020259,2.938e-05,0.0,0 STARLINK-4593,1 53633U 22104AX  23268.45293871  .00002938  00000-0  20259-3 0  9992,2 53633  53.2159 287.5038 0001558  91.4342 268.6829 15.08844957 60594,6917.865,95.437,540.808,538.652,0.0
53633.0,STARLINK-4593,PAYLOAD,2023-09-25 18:49:09,15.0884753,0.0001572,53.2161,286.0159,93.51,266.6072,0.00027446,4.084e-05,0.0,0 STARLINK-4593,1 53633U 22104AX  23268.78413795  .00004084  00000-0  27446-3 0  9996,2 53633  53.2161 286.0159 0001572  93.5100 266.6072 15.08847530 60640,6917.857,95.437,540.81,538.635,0.0
53633.0,STARLINK-4593,PAYLOAD,2023-09-26 05:56:51,15.08847258,0.0001593,53.2156,283.9346,93.1445,266.973,0.00029279,4.376e-05,0.0,0 STARLINK-4593,1 53633U 22104AX  23269.24781876  .00004376  00000-0  29279-3 0  9996,2 53633  53.2156 283.9346 0001593  93.1445 266.9730 15.08847258 60718,6917.858,95.437,540.825,538.621,0.0
53633.0,STARLINK-4593,PAYLOAD,2023-09-27 07:23:01,15.08840316,0.0001582,53.2168,279.1748,99.9718,260.1453,4.1356e-05,3.7e-06,0.0,0 STARLINK-4593,1 53633U 22104AX  23270.30766077  .00000370  00000-0  41356-4 0  9992,2 53633  53.2168 279.1748 0001582  99.9718 260.1453 15.08840316 60186,6917.879,95.438,540.839,538.65,0.0
53633.0,STARLINK-4593,PAYLOAD,2023-09-27 10:33:48,15.08838875,0.000164,53.2173,278.5811,100.073,260.0447,1.3134e-05,-7.9e-07,0.0,0 STARLINK-4593,1 53633U 22104AX  23270.44014164 -.00000079  00000-0  13134-4 0  9990,2 53633  53.2173 278.5811 0001640 100.0730 260.0447 15.08838875 60896,6917.884,95.438,540.883,538.614,0.0
53633.0,STARLINK-4593,PAYLOAD,2023-09-28 07:13:49,15.08831074,0.0001484,53.2172,274.7154,100.6755,259.4404,2.9488e-05,1.81e-06,0.0,0 STARLINK-4593,1 53633U 22104AX  23271.30126902  .00000181  00000-0  29488-4 0  9992,2 53633  53.2172 274.7154 0001484 100.6755 259.4404 15.08831074 60330,6917.908,95.438,540.799,538.746,0.0
53633.0,STARLINK-4593,PAYLOAD,2023-09-29 00:43:03,15.08836625,0.0001415,53.2168,271.4438,100.3164,259.7988,9.3192e-05,1.195e-05,0.0,0 STARLINK-4593,1 53633U 22104AX  23272.02990609  .00001195  00000-0  93192-4 0  9994,2 53633  53.2168 271.4438 0001415 100.3164 259.7988 15.08836625 60448,6917.891,95.438,540.735,538.777,0.0
53633.0,STARLINK-4593,PAYLOAD,2023-09-29 07:04:35,15.08844058,0.0001433,53.2166,270.255,99.2812,260.8343,0.00014997,2.1e-05,0.0,0 STARLINK-4593,1 53633U 22104AX  23272.29486075  .00002100  00000-0  14997-3 0  9992,2 53633  53.2166 270.2550 0001433  99.2812 260.8343 15.08844058 60485,6917.868,95.437,540.724,538.742,0.0
53633.0,STARLINK-4593,PAYLOAD,2023-09-30 03:44:36,15.08842144,0.0001282,53.2157,266.3859,84.8694,275.2445,0.00012,1.623e-05,0.0,0 STARLINK-4593,1 53633U 22104AX  23273.15598370  .00001623  00000-0  12000-3 0  9992,2 53633  53.2157 266.3859 0001282  84.8694 275.2445 15.08842144 60615,6917.874,95.437,540.626,538.852,0.0
53633.0,STARLINK-4593,PAYLOAD,2023-09-30 05:20:00,15.08842606,0.0001311,53.216,266.0883,80.3872,279.7268,0.00012355,1.679e-05,0.0,0 STARLINK-4593,1 53633U 22104AX  23273.22222331  .00001679  00000-0  12355-3 0  9995,2 53633  53.2160 266.0883 0001311  80.3872 279.7268 15.08842606 61318,6917.872,95.437,540.644,538.83,0.0
53633.0,STARLINK-4593,PAYLOAD,2023-10-01 08:21:33,15.0884073,0.0001485,53.2171,261.0391,82.4266,277.6895,5.7515e-06,-1.96e-06,0.0,0 STARLINK-4593,1 53633U 22104AX  23274.34831009 -.00000196  00000-0  57515-5 0  9990,2 53633  53.2171 261.0391 0001485  82.4266 277.6895 15.08840730 60791,6917.878,95.438,540.77,538.716,0.0
53633.0,STARLINK-4593,PAYLOAD,2023-10-01 16:18:29,15.08836323,0.000125,53.2166,259.5507,94.6662,265.4473,1.2298e-05,-9.2e-07,0.0,0 STARLINK-4593,1 53633U 22104AX  23274.67951203 -.00000092  00000-0  12298-4 0  9998,2 53633  53.2166 259.5507 0001250  94.6662 265.4473 15.08836323 61534,6917.892,95.438,540.621,538.892,0.0
53633.0,STARLINK-4593,PAYLOAD,2023-10-02 08:12:20,15.08850329,0.0001241,53.2165,256.5787,89.9303,270.1832,0.00011366,1.522e-05,0.0,0 STARLINK-4593,1 53633U 22104AX  23275.34190203  .00001522  00000-0  11366-3 0  9990,2 53633  53.2165 256.5787 0001241  89.9303 270.1832 15.08850329 60947,6917.849,95.437,540.572,538.855,0.0
53633.0,STARLINK-4593,PAYLOAD,2023-10-03 04:52:21,15.08846848,0.0001372,53.2168,252.7121,101.8915,258.2231,0.00015219,2.135e-05,0.0,0 STARLINK-4593,1 53633U 22104AX  23276.20302394  .00002135  00000-0  15219-3 0  9994,2 53633  53.2168 252.7121 0001372 101.8915 258.2231 15.08846848 61074,6917.859,95.437,540.674,538.775,0.0
53633.0,STARLINK-4593,PAYLOAD,2023-10-03 16:00:03,15.08838778,0.0001265,53.2163,250.6302,108.6397,251.4732,6.2899e-05,7.13e-06,0.0,0 STARLINK-4593,1 53633U 22104AX  23276.66671051  .00000713  00000-0  62899-4 0  9990,2 53633  53.2163 250.6302 0001265 108.6397 251.4732 15.08838778 61149,6917.884,95.438,540.624,538.874,0.0
53633.0,STARLINK-4593,PAYLOAD,2023-10-03 22:21:36,15.08834934,0.0001363,53.2165,249.4409,105.3037,254.8106,5.9475e-05,6.59e-06,0.0,0 STARLINK-4593,1 53633U 22104AX  23276.93167452  .00000659  00000-0  59475-4 0  9990,2 53633  53.2165 249.4409 0001363 105.3037 254.8106 15.08834934 61871,6917.896,95.438,540.704,538.818,0.0
53633.0,STARLINK-4593,PAYLOAD,2023-10-05 02:58:32,15.08847958,0.0001458,53.2157,244.0888,102.3023,257.8132,7.6082e-05,9.23e-06,0.0,0 STARLINK-4593,1 53633U 22104AX  23278.12398746  .00000923  00000-0  76082-4 0  9992,2 53633  53.2157 244.0888 0001458 102.3023 257.8132 15.08847958 61367,6917.856,95.437,540.73,538.712,0.0
53633.0,STARLINK-4593,PAYLOAD,2023-10-05 07:44:41,15.08853473,0.0001497,53.2159,243.1976,90.1453,269.971,0.00024786,3.66e-05,0.0,0 STARLINK-4593,1 53633U 22104AX  23278.32270696  .00003660  00000-0  24786-3 0  9991,2 53633  53.2159 243.1976 0001497  90.1453 269.9710 15.08853473 62086,6917.839,95.437,540.74,538.669,0.0
53633.0,STARLINK-4593,PAYLOAD,2023-10-06 02:49:19,15.08848091,0.0001343,53.2158,239.6295,96.0866,264.0279,0.0003108,4.663e-05,0.0,0 STARLINK-4593,1 53633U 22104AX  23279.11759052  .00004663  00000-0  31080-3 0  9996,2 53633  53.2158 239.6295 0001343  96.0866 264.0279 15.08848091 61515,6917.856,95.437,540.65,538.792,0.0
53633.0,STARLINK-4593,PAYLOAD,2023-10-06 13:57:01,15.08847893,0.0002041,53.215,237.5456,69.4412,290.6799,0.00018199,2.61e-05,0.0,0 STARLINK-4593,1 53633U 22104AX  23279.58127049  .00002610  00000-0  18199-3 0  9998,2 53633  53.2150 237.5456 0002041  69.4412 290.6799 15.08847893 62275,6917.856,95.437,541.133,538.309,0.0
53633.0,STARLINK-4593,PAYLOAD,2023-10-06 21:53:57,15.08841583,0.0002185,53.2155,236.0614,83.434,276.6901,6.2349e-05,7.04e-06,0.0,0 STARLINK-4593,1 53633U 22104AX  23279.91247271  .00000704  00000-0  62349-4 0  9994,2 53633  53.2155 236.0614 0002185  83.4340 276.6901 15.08841583 62320,6917.876,95.437,541.252,538.229,0.0
53633.0,STARLINK-4593,PAYLOAD,2023-10-07 01:04:44,15.08832612,0.0001353,53.2162,235.4675,76.2574,283.8568,-0.00010894,-2.021e-05,0.0,0 STARLINK-4593,1 53633U 22104AX  23280.04495542 -.00002021  00000-0 -10894-3 0  9999,2 53633  53.2162 235.4675 0001353  76.2574 283.8568 15.08832612 61650,6917.903,95.438,540.704,538.832,0.0
53633.0,STARLINK-4593,PAYLOAD,2023-10-07 02:40:07,15.08835148,0.0001345,53.2159,235.1705,79.4827,280.6317,-2.9155e-05,-7.52e-06,0.0,0 STARLINK-4593,1 53633U 22104AX  23280.11119482 -.00000752  00000-0 -29155-4 0  9993,2 53633  53.2159 235.1705 0001345  79.4827 280.6317 15.08835148 62356,6917.895,95.438,540.691,538.83,0.0
53633.0,STARLINK-4593,PAYLOAD,2023-10-07 21:44:45,15.08836846,0.0001314,53.216,231.5967,102.1123,258.0016,0.00019023,2.741e-05,0.0,0 STARLINK-4593,1 53633U 22104AX  23280.90607643  .00002741  00000-0  19023-3 0  9991,2 53633  53.2160 231.5967 0001314 102.1123 258.0016 15.08836846 62471,6917.89,95.438,540.664,538.846,0.0
53633.0,STARLINK-4593,PAYLOAD,2023-10-08 02:30:54,15.08847302,0.0001307,53.2158,230.7063,101.1114,259.0025,0.00036543,5.534e-05,0.0,0 STARLINK-4593,1 53633U 22104AX  23281.10479395  .00005534  00000-0  36543-3 0  9994,2 53633  53.2158 230.7063 0001307 101.1114 259.0025 15.08847302 61814,6917.858,95.437,540.627,538.819,0.0
53633.0,STARLINK-4593,PAYLOAD,2023-10-08 13:38:36,15.08854667,0.0001803,53.216,228.6273,83.4074,276.7123,0.00030216,4.526e-05,0.0,0 STARLINK-4593,1 53633U 22104AX  23281.56847382  .00004526  00000-0  30216-3 0  9990,2 53633  53.2160 228.6273 0001803  83.4074 276.7123 15.08854667 62575,6917.836,95.437,540.948,538.453,0.0
53633.0,STARLINK-4593,PAYLOAD,2023-10-08 20:00:08,15.0885072,0.0001847,53.2163,227.4417,87.9031,272.2172,0.00039105,5.943e-05,0.0,0 STARLINK-4593,1 53633U 22104AX  23281.83343342  .00005943  00000-0  39105-3 0  9997,2 53633  53.2163 227.4417 0001847  87.9031 272.2172 15.08850720 62611,6917.848,95.437,540.99,538.435,0.0
53633.0,STARLINK-4593,PAYLOAD,2023-10-09 02:21:41,15.0885086,0.0001517,53.216,226.2489,86.1968,273.9197,0.00033897,5.112e-05,0.0,0 STARLINK-4593,1 53633U 22104AX  23282.09839201  .00005112  00000-0  33897-3 0  9990,2 53633  53.2160 226.2489 0001517  86.1968 273.9197 15.08850860 61965,6917.847,95.437,540.762,538.663,0.0
53633.0,STARLINK-4593,PAYLOAD,2023-10-09 13:29:23,15.08841301,0.0001751,53.216,224.1669,80.5325,279.5865,0.00034973,5.282e-05,0.0,0 STARLINK-4593,1 53633U 22104AX  23282.56207596  .00005282  00000-0  34973-3 0  9992,2 53633  53.2160 224.1669 0001751  80.5325 279.5865 15.08841301 62726,6917.876,95.437,540.953,538.53,0.0
